stk.v.4.3 

BEGIN Ephemeris 
 
NumberOfEphemerisPoints		146 
ScenarioEpoch	    3 Sep 2020 21:40:41.162015498 
InterpolationMethod		Lagrange 
InterpolationOrder		5 
CentralBody				Earth 
CoordinateSystem			TEME 
CoordinateSystemEpoch	  3 Sep 2020 21:40:41.162015498 
DistanceUnit			Kilometers 
 
EphemerisTimePosVel 
 
       0.00000000   -4124.61102378    5850.60218365       0.04186508 -0.377770232 -0.277772892  7.449036723
 END Ephemeris 
